OBJECT_NAME,OBJECT_ID,EPOCH,MEAN_MOTION,ECCENTRICITY,INCLINATION,RA_OF_ASC_NODE,ARG_OF_PERICENTER,MEAN_ANOMALY,EPHEMERIS_TYPE,CLASSIFICATION_TYPE,NORAD_CAT_ID,ELEMENT_SET_NO,REV_AT_EPOCH,BSTAR,MEAN_MOTION_DOT,MEAN_MOTION_DDOT
ELEKTRO-L 2,2015-074A,2026-06-18T00:52:34.633344,1.00270556,.00009025,6.6975,70.5132,256.1704,298.2263,0,U,41105,999,3851,0,-.126E-5,0
COSMOS 2513,2015-075A,2026-06-19T08:07:22.512000,1.00271055,.00030467,0.0798,100.1391,332.4043,37.0989,0,U,41121,999,3857,0,-.144E-5,0
EXPRESS-AMU1,2015-082A,2026-06-19T13:02:51.257184,1.00274906,.00029671,0.0009,12.4016,85.2485,41.9597,0,U,41191,999,3829,0,.15E-5,0
GAOFEN-4,2015-083A,2026-06-19T20:29:21.757056,1.00273464,.0004246,0.3655,83.7535,119.1504,118.1954,0,U,41194,999,3855,0,-.34E-5,0
BELINTERSAT-1,2016-001A,2026-06-19T18:15:10.713024,1.00273792,.0002288,0.0269,254.9569,151.9856,186.3094,0,U,41238,999,3826,0,.101E-5,0
IRNSS-1E,2016-003A,2026-06-18T17:31:47.913024,1.00277463,.00189408,33.2372,59.7280,178.9729,42.9724,0,U,41241,999,3809,0,-.318E-5,0
EUTELSAT 9B,2016-005A,2026-06-19T18:03:09.146880,1.00272548,.0001682,0.0874,76.5134,334.4758,136.7426,0,U,41310,999,3814,0,.56E-6,0
SES-9,2016-013A,2026-06-18T21:59:29.946048,1.00270880,.0002105,0.0107,340.0830,104.5244,260.7094,0,U,41380,999,3745,0,-.351E-5,0
EUTELSAT 65 WEST A,2016-014A,2026-06-19T19:24:36.210816,1.00273591,.0002417,0.0509,336.9575,107.4389,49.5656,0,U,41382,999,3755,0,-.282E-5,0
IRNSS-1F,2016-015A,2026-06-18T23:20:35.054880,1.00268295,.0017431,5.3534,96.7408,185.0400,8.0115,0,U,41384,999,3768,0,.15E-5,0
BEIDOU-2 IGSO-6,2016-021A,2026-06-16T02:58:21.700128,1.00259474,.00571844,60.2243,38.0497,231.4868,132.3999,0,U,41434,999,3747,0,-.15E-5,0
IRNSS-1G,2016-027A,2026-06-18T16:32:08.571840,1.00265368,.00075489,5.2016,97.4387,355.5290,191.4476,0,U,41469,999,3719,0,-.343E-5,0
JCSAT-2B,2016-028A,2026-06-18T20:29:53.331072,1.00270118,.0000841,0.0179,6.2866,78.1201,284.1466,0,U,41471,999,3714,0,-.172E-5,0
THAICOM 8,2016-031A,2026-06-19T18:22:54.972192,1.00271909,.0003682,0.0592,37.1409,22.0989,202.9528,0,U,41552,999,3674,0,-.127E-5,0
INTELSAT 31 (IS-31),2016-035A,2026-06-19T02:09:30.712320,1.00264216,.00011277,0.0171,269.3791,318.6423,336.6183,0,U,41581,999,3670,0,-.156E-5,0
BEIDOU-2 G7,2016-037A,2026-06-19T20:24:21.770208,1.00275125,.000646,1.7275,69.3526,357.9537,257.3474,0,U,41586,999,691,0,-.359E-5,0
ABS-2A (MONGOLSAT-1),2016-038A,2026-06-19T19:17:31.768224,1.00269037,.0001386,0.0125,22.7952,6.3401,243.0036,0,U,41588,999,3673,0,-.89E-6,0
EUTELSAT 117 WEST B,2016-038B,2026-06-18T22:37:55.689024,1.00271826,.00006025,0.0100,153.3935,317.0300,19.2461,0,U,41589,999,3668,0,-.18E-6,0
BRISAT,2016-039A,2026-06-18T15:03:38.613600,1.00269327,.00019333,0.0220,335.4597,106.9867,200.8217,0,U,41591,999,3662,0,0,0
ECHOSTAR 18,2016-039B,2026-06-19T05:50:28.608288,1.00268946,.00013804,0.0180,14.3667,83.6095,195.7274,0,U,41592,999,3664,0,-.288E-5,0
MUOS-5,2016-041A,2026-06-19T15:47:42.607392,1.00272982,.0197566,2.1973,301.7267,260.7712,197.0936,0,U,41622,999,3711,0,-.149E-5,0
TIANTONG-1 1,2016-048A,2026-06-19T20:29:21.757056,1.00273615,.0005591,3.8552,43.4494,44.3971,228.9768,0,U,41725,999,3629,0,-.324E-5,0
JCSAT-16,2016-050A,2026-06-18T22:09:43.964064,1.00270739,.0000905,0.0183,7.0083,88.9211,287.6003,0,U,41729,999,3608,0,-.258E-5,0
USA 270,2016-052A,2026-06-16T14:14:22.517952,0.99499640,.000073,4.1965,77.2060,182.0156,35.6177,0,U,41744,999,2812,0,-.127E-5,0
USA 271,2016-052B,2026-06-16T18:42:08.176320,0.99837813,.0002276,4.1686,77.2569,292.3319,292.8146,0,U,41745,999,2791,0,-.332E-5,0
INTELSAT 36 (IS-36),2016-053A,2026-06-18T23:56:21.800256,1.00271257,.00021211,0.0124,11.1204,322.4188,1.2761,0,U,41747,999,3597,0,-.31E-6,0
INSAT-3DR,2016-054A,2026-06-19T16:38:56.770368,1.00271210,.0010472,0.1131,86.2198,187.5783,317.8182,0,U,41752,999,3584,0,-.82E-6,0
GSAT-18,2016-060A,2026-06-19T18:21:40.091040,1.00271275,.0005558,0.0659,95.6378,338.6065,183.1293,0,U,41793,999,3555,0,-.82E-6,0
SKY MUSTER 2 (NBN1B),2016-060B,2026-06-18T18:44:37.007232,1.00269897,.00014721,0.0020,21.1968,66.7815,244.9836,0,U,41794,999,3553,0,-.251E-5,0
HIMAWARI-9,2016-064A,2026-06-19T06:42:03.553920,1.00270188,.00010072,0.0172,307.7649,181.4804,19.5297,0,U,41836,999,3523,0,-.281E-5,0
SHIJIAN-17 (SJ-17),2016-065A,2026-06-19T14:42:43.554240,0.99855462,.0001902,5.7599,72.5770,27.4663,260.6195,0,U,41838,999,3522,0,.81E-6,0
GOES 16,2016-071A,2026-06-19T15:48:05.072256,1.00271313,.0000285,0.3487,85.5113,332.9109,341.7820,0,U,41866,999,3512,0,-.97E-6,0
TIANLIAN 1-04,2016-072A,2026-06-19T18:50:54.443040,1.00271759,.0042522,0.8745,82.9004,90.0807,194.5195,0,U,41869,999,3532,0,.25E-6,0
WGS F8 (USA 272),2016-075A,2026-06-18T15:03:38.613600,1.00268202,.00001556,0.0418,50.4560,340.9011,251.2399,0,U,41879,999,3483,0,0,0
FENGYUN 4A,2016-077A,2026-06-19T08:19:52.631616,1.00267406,.00086942,2.3289,80.2523,153.5825,282.4367,0,U,41882,999,3495,0,-.364E-5,0
ECHOSTAR 19,2016-079A,2026-06-19T15:50:12.367104,1.00272045,.0001253,0.0184,18.1120,75.7807,314.4383,0,U,41893,999,3472,0,-.144E-5,0
JCSAT-110A (JCSAT-15),2016-082A,2026-06-19T20:56:08.156832,1.00269811,.0000522,0.0185,12.3832,86.1145,233.6809,0,U,41903,999,3478,0,-.356E-5,0
STAR ONE D1,2016-082B,2026-06-19T12:28:39.536256,1.00270128,.00022297,0.0159,16.8181,91.3553,262.7280,0,U,41904,999,3479,0,-.217E-5,0
TJS-2,2017-001A,2026-06-19T19:24:17.645184,1.00270315,.0000402,0.8411,85.2923,56.3108,124.0419,0,U,41911,999,3474,0,-.12E-6,0
SBIRS GEO-4 (USA 273),2017-004A,2026-06-19T20:12:38.610720,1.00271960,.0002039,2.2490,43.3718,36.3457,152.3974,0,U,41937,999,3462,0,.117E-5,0
HISPASAT 36W-1,2017-006A,2026-06-19T04:08:58.135776,1.00280304,.00015174,0.0158,176.4567,251.7801,225.4062,0,U,41942,999,3426,0,-.25E-5,0
TELKOM 3S,2017-007A,2026-06-19T04:32:38.798880,1.00267211,.0002259,0.0158,355.6089,90.4220,7.5579,0,U,41944,999,3416,0,0,0
INTELSAT 32E (IS-32E),2017-007B,2026-06-19T04:06:58.326624,1.00270576,.00006553,0.0180,10.1464,310.2644,325.5432,0,U,41945,999,3424,0,-.275E-5,0
ECHOSTAR 23,2017-014A,2026-06-19T14:52:15.198240,1.00269079,.0002153,0.0180,6.0806,78.5350,296.3875,0,U,42070,999,3394,0,-.63E-6,0
WGS F9 (USA 275),2017-016A,2026-06-19T20:28:38.571744,1.00270351,.0000369,0.0190,354.2291,314.4939,254.5056,0,U,42075,999,3392,0,0,0
SES-10,2017-017A,2026-06-19T05:34:23.395008,1.00271650,.0002656,0.0225,41.2107,55.0874,187.8610,0,U,42432,999,3377,0,-.279E-5,0
CHINASAT 16 (SJ-13),2017-018A,2026-06-19T01:25:30.429408,1.00265993,.00041371,0.1014,90.1338,141.2871,167.7292,0,U,42662,999,3376,0,-.358E-5,0
KOREASAT 7,2017-023A,2026-06-19T18:33:33.603840,1.00273934,.0000755,0.0211,341.7892,67.6219,252.8653,0,U,42691,999,3339,0,-.367E-5,0
SGDC,2017-023B,2026-06-19T11:08:46.618080,1.00269796,.00026392,0.0152,356.9206,98.4468,264.6503,0,U,42692,999,3342,0,-.255E-5,0
GSAT-9,2017-024A,2026-06-19T19:36:05.013216,1.00268173,.0002537,0.0134,63.0494,21.7206,214.5940,0,U,42695,999,3332,0,-.291E-5,0
INMARSAT 5-F4,2017-025A,2026-06-18T11:28:45.069024,1.00273392,.0000618,0.0173,18.0434,337.7045,139.6424,0,U,42698,999,3329,0,.69E-6,0
SES-15,2017-026A,2026-06-19T00:17:11.299776,1.00268635,.00004177,0.0188,342.0645,67.4036,92.8830,0,U,42709,999,745,0,.54E-6,0
QZS-2 (MICHIBIKI-2),2017-028A,2026-06-19T11:28:51.813408,1.00283355,.0758837,39.4240,243.1214,269.2922,69.3071,0,U,42738,999,764,0,-.184E-5,0
VIASAT-2,2017-029A,2026-06-19T17:40:30.161280,1.00271821,.0000257,0.0158,301.1426,74.6564,87.3901,0,U,42740,999,3323,0,-.271E-5,0
EUTELSAT 172B,2017-029B,2026-06-19T18:49:39.561024,1.00270741,.0000033,0.0341,141.3451,72.3730,148.7154,0,U,42741,999,3376,0,-.11E-6,0
GSAT-19,2017-031A,2026-06-19T18:14:10.810176,1.00271028,.0007032,0.0319,264.8417,166.2840,158.2777,0,U,42747,999,3317,0,.12E-5,0
ECHOSTAR 21,2017-032A,2026-06-19T20:12:38.610720,1.00271099,.000219,1.7707,355.9293,94.7100,130.8412,0,U,42749,999,3312,0,.59E-6,0
BULGARIASAT-1,2017-038A,2026-06-19T18:49:38.806752,1.00270624,.0003134,0.0119,51.4195,49.0961,91.7894,0,U,42801,999,3287,0,.5E-7,0
HELLAS-SAT 3,2017-040A,2026-06-19T18:11:41.047872,1.00272803,.0004743,0.0546,50.9629,4.4131,164.5051,0,U,42814,999,3283,0,.147E-5,0
GSAT-17,2017-040B,2026-06-19T08:11:15.958752,1.00270108,.00019492,0.0164,31.5537,275.1125,177.1938,0,U,42815,999,3281,0,-.263E-5,0
INTELSAT 35E (IS-35E),2017-041A,2026-06-19T04:09:28.088064,1.00270762,.00020387,0.0194,13.3558,75.0828,206.8380,0,U,42818,999,3283,0,0,0
COSMOS 2520,2017-046A,2026-06-19T18:13:25.882176,1.00276807,.0001021,0.0479,94.6497,9.4172,122.2744,0,U,42907,999,3242,0,.131E-5,0
TDRS 13,2017-047A,2026-06-19T20:28:38.571744,1.00271855,.0014616,3.4524,2.8215,106.4132,94.5596,0,U,42915,999,3237,0,-.106E-5,0
QZS-3 (MICHIBIKI-3),2017-048A,2026-06-19T18:36:48.294144,1.00274983,.0001967,0.0611,164.7082,279.6233,229.8655,0,U,42917,999,3228,0,-.353E-5,0
AMAZONAS 5,2017-053A,2026-06-19T19:38:38.806080,1.00272941,.0002054,0.0306,327.9000,69.6732,104.1259,0,U,42934,999,3207,0,-.288E-5,0
ASIASAT 9,2017-057A,2026-06-19T18:35:18.438144,1.00269249,.0002544,0.0136,103.3432,331.7850,233.7914,0,U,42942,999,3188,0,-.365E-5,0
INTELSAT 37E (IS-37E),2017-059A,2026-06-19T20:36:38.515968,1.00271087,.0002578,0.0183,15.8076,96.8898,86.5479,0,U,42950,999,3209,0,-.146E-5,0
BSAT-4A,2017-059B,2026-06-19T17:53:44.762208,1.00270381,.0004045,0.0335,352.5811,78.0762,215.5715,0,U,42951,999,3182,0,-.356E-5,0
QZS-4 (MICHIBIKI-4),2017-062A,2026-06-18T08:24:11.162016,1.00250086,.0745019,40.1070,343.4662,271.8091,274.2172,0,U,42965,999,3181,0,-.36E-5,0
SES-11 (ECHOSTAR 105),2017-063A,2026-06-19T15:47:57.583104,1.00270977,.0002787,0.0149,0.3822,73.6282,325.9029,0,U,42967,999,3174,0,-.95E-6,0
KOREASAT 5A,2017-067A,2026-06-19T18:32:48.675840,1.00269822,.0000691,0.0168,310.2229,132.3074,216.8024,0,U,42984,999,3155,0,-.364E-5,0
ALCOMSAT 1,2017-078A,2026-06-19T20:44:02.699232,1.00272462,.0002293,0.0246,268.2884,173.6260,112.3637,0,U,43039,999,3132,0,-.192E-5,0
